{
  "type": "FeatureCollection",
  "features": [
    {
      "type": "Feature",
      "properties": {
        "norad_id": 36048,
        "name": "COSMOS 2251 DEB",
        "group": "cosmos-2251-debris",
        "lat": 38.308890534361,
        "lon": -65.45104202926571,
        "alt_km": 755.8892729359368,
        "timestamp": "2025-12-22T09:53:37.797102+00:00",
        "meta_object_name": "COSMOS 2251 DEB",
        "meta_object_id": "1993-036AXK",
        "meta_epoch": "2025-12-21T06:01:50.414016",
        "meta_mean_motion": 14.37865645,
        "meta_eccentricity": 0.0026967,
        "meta_inclination": 74.0573,
        "meta_ra_of_asc_node": 283.6319,
        "meta_arg_of_pericenter": 332.094,
        "meta_mean_anomaly": 180.7418,
        "meta_ephemeris_type": 0,
        "meta_classification_type": "U",
        "meta_norad_cat_id": 36048,
        "meta_element_set_no": 999,
        "meta_rev_at_epoch": 85624,
        "meta_bstar": 0.00021907,
        "meta_mean_motion_dot": 6.37e-06,
        "meta_mean_motion_ddot": 0,
        "tle_line1": "1 36048U 93036AXK 25355.25127794  .00000637  00000+0  21907-3 0  9996",
        "tle_line2": "2 36048  74.0573 283.6319 0026967 332.0940 180.7418 14.37865645856245"
      },
      "geometry": {
        "type": "Point",
        "coordinates": [
          -65.45104202926571,
          38.308890534361
        ]
      }
    },
    {
      "type": "Feature",
      "properties": {
        "norad_id": 36049,
        "name": "COSMOS 2251 DEB",
        "group": "cosmos-2251-debris",
        "lat": -73.74064749708452,
        "lon": 21.601473223096768,
        "alt_km": 692.2384861587161,
        "timestamp": "2025-12-22T09:53:37.797112+00:00",
        "meta_object_name": "COSMOS 2251 DEB",
        "meta_object_id": "1993-036AXL",
        "meta_epoch": "2025-12-19T00:11:29.887584",
        "meta_mean_motion": 14.62222603,
        "meta_eccentricity": 0.00103942,
        "meta_inclination": 74.0312,
        "meta_ra_of_asc_node": 107.1751,
        "meta_arg_of_pericenter": 195.1693,
        "meta_mean_anomaly": 164.9164,
        "meta_ephemeris_type": 0,
        "meta_classification_type": "U",
        "meta_norad_cat_id": 36049,
        "meta_element_set_no": 999,
        "meta_rev_at_epoch": 85456,
        "meta_bstar": 0.00099664593,
        "meta_mean_motion_dot": 4.999e-05,
        "meta_mean_motion_ddot": 0,
        "tle_line1": "1 36049U 93036AXL 25353.00798481  .00004999  00000+0  99665-3 0  9996",
        "tle_line2": "2 36049  74.0312 107.1751 0010394 195.1693 164.9164 14.62222603854561"
      },
      "geometry": {
        "type": "Point",
        "coordinates": [
          21.601473223096768,
          -73.74064749708452
        ]
      }
    },
    {
      "type": "Feature",
      "properties": {
        "norad_id": 36050,
        "name": "COSMOS 2251 DEB",
        "group": "cosmos-2251-debris",
        "lat": -69.74420905332018,
        "lon": 45.22288144598805,
        "alt_km": 509.1757920282844,
        "timestamp": "2025-12-22T09:53:37.797122+00:00",
        "meta_object_name": "COSMOS 2251 DEB",
        "meta_object_id": "1993-036AXM",
        "meta_epoch": "2025-12-21T18:21:07.316064",
        "meta_mean_motion": 15.01154113,
        "meta_eccentricity": 0.0088369,
        "meta_inclination": 74.0296,
        "meta_ra_of_asc_node": 175.6427,
        "meta_arg_of_pericenter": 253.2402,
        "meta_mean_anomaly": 105.9076,
        "meta_ephemeris_type": 0,
        "meta_classification_type": "U",
        "meta_norad_cat_id": 36050,
        "meta_element_set_no": 999,
        "meta_rev_at_epoch": 67170,
        "meta_bstar": 0.00047817,
        "meta_mean_motion_dot": 6.624e-05,
        "meta_mean_motion_ddot": 0,
        "tle_line1": "1 36050U 93036AXM 25355.76466801  .00006624  00000+0  47817-3 0  9990",
        "tle_line2": "2 36050  74.0296 175.6427 0088369 253.2402 105.9076 15.01154113671709"
      },
      "geometry": {
        "type": "Point",
        "coordinates": [
          45.22288144598805,
          -69.74420905332018
        ]
      }
    },
    {
      "type": "Feature",
      "properties": {
        "norad_id": 36053,
        "name": "COSMOS 2251 DEB",
        "group": "cosmos-2251-debris",
        "lat": 70.19436160875534,
        "lon": -172.3996722889397,
        "alt_km": 671.767691398316,
        "timestamp": "2025-12-22T09:53:37.797132+00:00",
        "meta_object_name": "COSMOS 2251 DEB",
        "meta_object_id": "1993-036AXQ",
        "meta_epoch": "2025-12-19T02:27:11.674944",
        "meta_mean_motion": 14.57252603,
        "meta_eccentricity": 0.00325446,
        "meta_inclination": 73.8697,
        "meta_ra_of_asc_node": 140.476,
        "meta_arg_of_pericenter": 87.3695,
        "meta_mean_anomaly": 273.1193,
        "meta_ephemeris_type": 0,
        "meta_classification_type": "U",
        "meta_norad_cat_id": 36053,
        "meta_element_set_no": 999,
        "meta_rev_at_epoch": 87537,
        "meta_bstar": 0.0010759038,
        "meta_mean_motion_dot": 4.872e-05,
        "meta_mean_motion_ddot": 0,
        "tle_line1": "1 36053U 93036AXQ 25353.10221846  .00004872  00000+0  10759-2 0  9994",
        "tle_line2": "2 36053  73.8697 140.4760 0032544  87.3695 273.1193 14.57252603875378"
      },
      "geometry": {
        "type": "Point",
        "coordinates": [
          -172.3996722889397,
          70.19436160875534
        ]
      }
    },
    {
      "type": "Feature",
      "properties": {
        "norad_id": 36058,
        "name": "COSMOS 2251 DEB",
        "group": "cosmos-2251-debris",
        "lat": -69.2427235518311,
        "lon": -115.869440345922,
        "alt_km": 714.6470083152681,
        "timestamp": "2025-12-22T09:53:37.797142+00:00",
        "meta_object_name": "COSMOS 2251 DEB",
        "meta_object_id": "1993-036AXV",
        "meta_epoch": "2025-12-20T18:52:04.818432",
        "meta_mean_motion": 14.58726339,
        "meta_eccentricity": 0.00440828,
        "meta_inclination": 74.0229,
        "meta_ra_of_asc_node": 18.1226,
        "meta_arg_of_pericenter": 150.2394,
        "meta_mean_anomaly": 210.1292,
        "meta_ephemeris_type": 0,
        "meta_classification_type": "U",
        "meta_norad_cat_id": 36058,
        "meta_element_set_no": 999,
        "meta_rev_at_epoch": 66228,
        "meta_bstar": 0.0002931852,
        "meta_mean_motion_dot": 1.357e-05,
        "meta_mean_motion_ddot": 0,
        "tle_line1": "1 36058U 93036AXV 25354.78616688  .00001357  00000+0  29319-3 0  9994",
        "tle_line2": "2 36058  74.0229  18.1226 0044082 150.2394 210.1292 14.58726339662289"
      },
      "geometry": {
        "type": "Point",
        "coordinates": [
          -115.869440345922,
          -69.2427235518311
        ]
      }
    },
    {
      "type": "Feature",
      "properties": {
        "norad_id": 36060,
        "name": "COSMOS 2251 DEB",
        "group": "cosmos-2251-debris",
        "lat": -58.478269139663766,
        "lon": -171.20869976174146,
        "alt_km": 747.876362783777,
        "timestamp": "2025-12-22T09:53:37.797175+00:00",
        "meta_object_name": "COSMOS 2251 DEB",
        "meta_object_id": "1993-036AXX",
        "meta_epoch": "2025-12-21T20:51:43.648416",
        "meta_mean_motion": 14.42017539,
        "meta_eccentricity": 0.0015553,
        "meta_inclination": 74.0279,
        "meta_ra_of_asc_node": 217.6359,
        "meta_arg_of_pericenter": 313.6591,
        "meta_mean_anomaly": 46.3274,
        "meta_ephemeris_type": 0,
        "meta_classification_type": "U",
        "meta_norad_cat_id": 36060,
        "meta_element_set_no": 999,
        "meta_rev_at_epoch": 85141,
        "meta_bstar": 0.00023238,
        "meta_mean_motion_dot": 7.37e-06,
        "meta_mean_motion_ddot": 0,
        "tle_line1": "1 36060U 93036AXX 25355.86925519  .00000737  00000+0  23238-3 0  9998",
        "tle_line2": "2 36060  74.0279 217.6359 0015553 313.6591  46.3274 14.42017539851417"
      },
      "geometry": {
        "type": "Point",
        "coordinates": [
          -171.20869976174146,
          -58.478269139663766
        ]
      }
    },
    {
      "type": "Feature",
      "properties": {
        "norad_id": 36061,
        "name": "COSMOS 2251 DEB",
        "group": "cosmos-2251-debris",
        "lat": -10.61832380478092,
        "lon": 165.1349939597443,
        "alt_km": 797.843876568505,
        "timestamp": "2025-12-22T09:53:37.797186+00:00",
        "meta_object_name": "COSMOS 2251 DEB",
        "meta_object_id": "1993-036AXY",
        "meta_epoch": "2025-12-20T16:49:06.144384",
        "meta_mean_motion": 14.33720119,
        "meta_eccentricity": 0.00368808,
        "meta_inclination": 74.0242,
        "meta_ra_of_asc_node": 345.1877,
        "meta_arg_of_pericenter": 70.6074,
        "meta_mean_anomaly": 289.9058,
        "meta_ephemeris_type": 0,
        "meta_classification_type": "U",
        "meta_norad_cat_id": 36061,
        "meta_element_set_no": 999,
        "meta_rev_at_epoch": 65218,
        "meta_bstar": 0.00020724072,
        "meta_mean_motion_dot": 5.54e-06,
        "meta_mean_motion_ddot": 0,
        "tle_line1": "1 36061U 93036AXY 25354.70076556  .00000554  00000+0  20724-3 0  9993",
        "tle_line2": "2 36061  74.0242 345.1877 0036880  70.6074 289.9058 14.33720119652185"
      },
      "geometry": {
        "type": "Point",
        "coordinates": [
          165.1349939597443,
          -10.61832380478092
        ]
      }
    }
  ]
}